STARLINK-1368           
1 45540U 20025K   25232.30891042  .00001308  00000+0  10667-3 0  9992
2 45540  53.0542 290.6525 0001405  87.7989 272.3160 15.06397907294155
STARLINK-1371           
1 45542U 20025M   25232.47847030 -.00000368  00000+0 -57872-5 0  9998
2 45542  53.0547 289.8949 0001394  72.0082 288.1059 15.06392745294179
STARLINK-1372           
1 45543U 20025N   25232.44898429  .00000684  00000+0  64807-4 0  9998
2 45543  53.0557 290.0248 0001099  76.6960 283.4151 15.06394971294178
STARLINK-1373           
1 45544U 20025P   25232.46740967  .00001132  00000+0  94860-4 0  9995
2 45544  53.0544 289.9446 0001055  86.1823 273.9287 15.06399313294166
STARLINK-1294           
1 45551U 20025W   25232.31583946  .00094176  00000+0  20401-2 0  9997
2 45551  53.0524 247.2161 0006751  50.4617 309.6984 15.43661703294736
STARLINK-1323           
1 45553U 20025Y   25231.91668981  .00183414  00000+0  11350-2 0  9994
2 45553  53.0430 240.3582 0013301 343.7093 183.1683 15.75914049  5853
STARLINK-1325           
1 45554U 20025Z   25232.58335648  .00093059  00000+0  24332-2 0  9999
2 45554  53.0605 236.8695 0001008  61.9863  56.8625 15.38001452294922
STARLINK-1327           
1 45555U 20025AA  25232.30707054  .00001302  00000+0  10630-3 0  9991
2 45555  53.0539 270.6610 0001012  82.7869 277.3235 15.06396348294411
STARLINK-1336           
1 45557U 20025AC  25232.33335648  .00174082  00000+0  13141-2 0  9997
2 45557  53.0456 242.6063 0013824 350.8121   3.4141 15.71310072294805
STARLINK-1342           
1 45558U 20025AD  25232.33335648  .00192258  00000+0  10597-2 0  9995
2 45558  53.0543 241.1362 0012143 352.4632 178.0487 15.78511962294829
STARLINK-1355           
1 45563U 20025AJ  25232.33335648  .00219491  00000+0  77879-3 0  9997
2 45563  53.0363 172.5609 0002574  79.4484 165.7726 15.87873135295782
STARLINK-1356           
1 45564U 20025AK  25231.38189433 -.00003460  00000+0 -21350-3 0  9993
2 45564  53.0536 274.8145 0001160  83.8103 276.3018 15.06397546294288
STARLINK-1357           
1 45565U 20025AL  25231.38230047  .00035179  00000+0  15406-2 0  9996
2 45565  53.0562 270.0105 0005755 342.4567  17.6229 15.21711876294940
STARLINK-1361           
1 45567U 20025AN  25232.26283998  .00001055  00000+0  89708-4 0  9993
2 45567  53.0542 270.8624 0001468  91.7542 268.3615 15.06397511294402
STARLINK-1363           
1 45568U 20025AP  25232.34395810  .00000958  00000+0  83169-4 0  9996
2 45568  53.0541 270.7403 0001219  87.4362 272.6767 15.06396294294416
STARLINK-1366           
1 45569U 20025AQ  25232.26652488  .00000026  00000+0  20616-4 0  9999
2 45569  53.0549 270.8416 0001123  88.7234 271.3883 15.06396162294404
STARLINK-1376           
1 45570U 20025AR  25232.32550462  .00002949  00000+0  21676-3 0  9999
2 45570  53.0540 270.5777 0001302  84.5139 275.5998 15.06405185294422
