[{"OBJECT_NAME":"STARLINK-1368","OBJECT_ID":"2020-025K","EPOCH":"2025-08-20T07:24:49.860288","MEAN_MOTION":15.06397907,"ECCENTRICITY":0.0001405,"INCLINATION":53.0542,"RA_OF_ASC_NODE":290.6525,"ARG_OF_PERICENTER":87.7989,"MEAN_ANOMALY":272.316,"EPHEMERIS_TYPE":0,"CLASSIFICATION_TYPE":"U","NORAD_CAT_ID":45540,"ELEMENT_SET_NO":999,"REV_AT_EPOCH":29415,"BSTAR":0.00010667,"MEAN_MOTION_DOT":1.308e-5,"MEAN_MOTION_DDOT":0},{"OBJECT_NAME":"STARLINK-1371","OBJECT_ID":"2020-025M","EPOCH":"2025-08-20T11:28:59.833920","MEAN_MOTION":15.06392745,"ECCENTRICITY":0.0001394,"INCLINATION":53.0547,"RA_OF_ASC_NODE":289.8949,"ARG_OF_PERICENTER":72.0082,"MEAN_ANOMALY":288.1059,"EPHEMERIS_TYPE":0,"CLASSIFICATION_TYPE":"U","NORAD_CAT_ID":45542,"ELEMENT_SET_NO":999,"REV_AT_EPOCH":29417,"BSTAR":-5.7872e-6,"MEAN_MOTION_DOT":-3.68e-6,"MEAN_MOTION_DDOT":0},{"OBJECT_NAME":"STARLINK-1372","OBJECT_ID":"2020-025N","EPOCH":"2025-08-20T10:46:32.242656","MEAN_MOTION":15.06394971,"ECCENTRICITY":0.0001099,"INCLINATION":53.0557,"RA_OF_ASC_NODE":290.0248,"ARG_OF_PERICENTER":76.696,"MEAN_ANOMALY":283.4151,"EPHEMERIS_TYPE":0,"CLASSIFICATION_TYPE":"U","NORAD_CAT_ID":45543,"ELEMENT_SET_NO":999,"REV_AT_EPOCH":29417,"BSTAR":6.4807e-5,"MEAN_MOTION_DOT":6.84e-6,"MEAN_MOTION_DDOT":0},{"OBJECT_NAME":"STARLINK-1373","OBJECT_ID":"2020-025P","EPOCH":"2025-08-20T11:13:04.195488","MEAN_MOTION":15.06399313,"ECCENTRICITY":0.0001055,"INCLINATION":53.0544,"RA_OF_ASC_NODE":289.9446,"ARG_OF_PERICENTER":86.1823,"MEAN_ANOMALY":273.9287,"EPHEMERIS_TYPE":0,"CLASSIFICATION_TYPE":"U","NORAD_CAT_ID":45544,"ELEMENT_SET_NO":999,"REV_AT_EPOCH":29416,"BSTAR":9.486e-5,"MEAN_MOTION_DOT":1.132e-5,"MEAN_MOTION_DDOT":0},{"OBJECT_NAME":"STARLINK-1294","OBJECT_ID":"2020-025W","EPOCH":"2025-08-20T07:34:48.529344","MEAN_MOTION":15.43661703,"ECCENTRICITY":0.0006751,"INCLINATION":53.0524,"RA_OF_ASC_NODE":247.2161,"ARG_OF_PERICENTER":50.4617,"MEAN_ANOMALY":309.6984,"EPHEMERIS_TYPE":0,"CLASSIFICATION_TYPE":"U","NORAD_CAT_ID":45551,"ELEMENT_SET_NO":999,"REV_AT_EPOCH":29473,"BSTAR":0.0020401,"MEAN_MOTION_DOT":0.00094176,"MEAN_MOTION_DDOT":0},{"OBJECT_NAME":"STARLINK-1323","OBJECT_ID":"2020-025Y","EPOCH":"2025-08-19T22:00:01.999584","MEAN_MOTION":15.75914049,"ECCENTRICITY":0.0013301,"INCLINATION":53.043,"RA_OF_ASC_NODE":240.3582,"ARG_OF_PERICENTER":343.7093,"MEAN_ANOMALY":183.1683,"EPHEMERIS_TYPE":0,"CLASSIFICATION_TYPE":"U","NORAD_CAT_ID":45553,"ELEMENT_SET_NO":999,"REV_AT_EPOCH":585,"BSTAR":0.001135,"MEAN_MOTION_DOT":0.00183414,"MEAN_MOTION_DDOT":0},{"OBJECT_NAME":"STARLINK-1325","OBJECT_ID":"2020-025Z","EPOCH":"2025-08-20T14:00:01.999872","MEAN_MOTION":15.38001452,"ECCENTRICITY":0.0001008,"INCLINATION":53.0605,"RA_OF_ASC_NODE":236.8695,"ARG_OF_PERICENTER":61.9863,"MEAN_ANOMALY":56.8625,"EPHEMERIS_TYPE":0,"CLASSIFICATION_TYPE":"U","NORAD_CAT_ID":45554,"ELEMENT_SET_NO":999,"REV_AT_EPOCH":29492,"BSTAR":0.0024332,"MEAN_MOTION_DOT":0.00093059,"MEAN_MOTION_DDOT":0},{"OBJECT_NAME":"STARLINK-1327","OBJECT_ID":"2020-025AA","EPOCH":"2025-08-20T07:22:10.894656","MEAN_MOTION":15.06396348,"ECCENTRICITY":0.0001012,"INCLINATION":53.0539,"RA_OF_ASC_NODE":270.661,"ARG_OF_PERICENTER":82.7869,"MEAN_ANOMALY":277.3235,"EPHEMERIS_TYPE":0,"CLASSIFICATION_TYPE":"U","NORAD_CAT_ID":45555,"ELEMENT_SET_NO":999,"REV_AT_EPOCH":29441,"BSTAR":0.0001063,"MEAN_MOTION_DOT":1.302e-5,"MEAN_MOTION_DDOT":0},{"OBJECT_NAME":"STARLINK-1336","OBJECT_ID":"2020-025AC","EPOCH":"2025-08-20T08:00:01.999872","MEAN_MOTION":15.71310072,"ECCENTRICITY":0.0013824,"INCLINATION":53.0456,"RA_OF_ASC_NODE":242.6063,"ARG_OF_PERICENTER":350.8121,"MEAN_ANOMALY":3.4141,"EPHEMERIS_TYPE":0,"CLASSIFICATION_TYPE":"U","NORAD_CAT_ID":45557,"ELEMENT_SET_NO":999,"REV_AT_EPOCH":29480,"BSTAR":0.0013141,"MEAN_MOTION_DOT":0.00174082,"MEAN_MOTION_DDOT":0},{"OBJECT_NAME":"STARLINK-1342","OBJECT_ID":"2020-025AD","EPOCH":"2025-08-20T08:00:01.999872","MEAN_MOTION":15.78511962,"ECCENTRICITY":0.0012143,"INCLINATION":53.0543,"RA_OF_ASC_NODE":241.1362,"ARG_OF_PERICENTER":352.4632,"MEAN_ANOMALY":178.0487,"EPHEMERIS_TYPE":0,"CLASSIFICATION_TYPE":"U","NORAD_CAT_ID":45558,"ELEMENT_SET_NO":999,"REV_AT_EPOCH":29482,"BSTAR":0.0010597,"MEAN_MOTION_DOT":0.00192258,"MEAN_MOTION_DDOT":0},{"OBJECT_NAME":"STARLINK-1355","OBJECT_ID":"2020-025AJ","EPOCH":"2025-08-20T08:00:01.999872","MEAN_MOTION":15.87873135,"ECCENTRICITY":0.0002574,"INCLINATION":53.0363,"RA_OF_ASC_NODE":172.5609,"ARG_OF_PERICENTER":79.4484,"MEAN_ANOMALY":165.7726,"EPHEMERIS_TYPE":0,"CLASSIFICATION_TYPE":"U","NORAD_CAT_ID":45563,"ELEMENT_SET_NO":999,"REV_AT_EPOCH":29578,"BSTAR":0.00077879,"MEAN_MOTION_DOT":0.00219491,"MEAN_MOTION_DDOT":0},{"OBJECT_NAME":"STARLINK-1356","OBJECT_ID":"2020-025AK","EPOCH":"2025-08-19T09:09:55.670112","MEAN_MOTION":15.06397546,"ECCENTRICITY":0.000116,"INCLINATION":53.0536,"RA_OF_ASC_NODE":274.8145,"ARG_OF_PERICENTER":83.8103,"MEAN_ANOMALY":276.3018,"EPHEMERIS_TYPE":0,"CLASSIFICATION_TYPE":"U","NORAD_CAT_ID":45564,"ELEMENT_SET_NO":999,"REV_AT_EPOCH":29428,"BSTAR":-0.0002135,"MEAN_MOTION_DOT":-3.46e-5,"MEAN_MOTION_DDOT":0},{"OBJECT_NAME":"STARLINK-1357","OBJECT_ID":"2020-025AL","EPOCH":"2025-08-19T09:10:30.760608","MEAN_MOTION":15.21711876,"ECCENTRICITY":0.0005755,"INCLINATION":53.0562,"RA_OF_ASC_NODE":270.0105,"ARG_OF_PERICENTER":342.4567,"MEAN_ANOMALY":17.6229,"EPHEMERIS_TYPE":0,"CLASSIFICATION_TYPE":"U","NORAD_CAT_ID":45565,"ELEMENT_SET_NO":999,"REV_AT_EPOCH":29494,"BSTAR":0.0015406,"MEAN_MOTION_DOT":0.00035179,"MEAN_MOTION_DDOT":0},{"OBJECT_NAME":"STARLINK-1361","OBJECT_ID":"2020-025AN","EPOCH":"2025-08-20T06:18:29.374272","MEAN_MOTION":15.06397511,"ECCENTRICITY":0.0001468,"INCLINATION":53.0542,"RA_OF_ASC_NODE":270.8624,"ARG_OF_PERICENTER":91.7542,"MEAN_ANOMALY":268.3615,"EPHEMERIS_TYPE":0,"CLASSIFICATION_TYPE":"U","NORAD_CAT_ID":45567,"ELEMENT_SET_NO":999,"REV_AT_EPOCH":29440,"BSTAR":8.9708e-5,"MEAN_MOTION_DOT":1.055e-5,"MEAN_MOTION_DDOT":0},{"OBJECT_NAME":"STARLINK-1363","OBJECT_ID":"2020-025AP","EPOCH":"2025-08-20T08:15:17.979840","MEAN_MOTION":15.06396294,"ECCENTRICITY":0.0001219,"INCLINATION":53.0541,"RA_OF_ASC_NODE":270.7403,"ARG_OF_PERICENTER":87.4362,"MEAN_ANOMALY":272.6767,"EPHEMERIS_TYPE":0,"CLASSIFICATION_TYPE":"U","NORAD_CAT_ID":45568,"ELEMENT_SET_NO":999,"REV_AT_EPOCH":29441,"BSTAR":8.3169e-5,"MEAN_MOTION_DOT":9.58e-6,"MEAN_MOTION_DDOT":0},{"OBJECT_NAME":"STARLINK-1366","OBJECT_ID":"2020-025AQ","EPOCH":"2025-08-20T06:23:47.749632","MEAN_MOTION":15.06396162,"ECCENTRICITY":0.0001123,"INCLINATION":53.0549,"RA_OF_ASC_NODE":270.8416,"ARG_OF_PERICENTER":88.7234,"MEAN_ANOMALY":271.3883,"EPHEMERIS_TYPE":0,"CLASSIFICATION_TYPE":"U","NORAD_CAT_ID":45569,"ELEMENT_SET_NO":999,"REV_AT_EPOCH":29440,"BSTAR":2.0616e-5,"MEAN_MOTION_DOT":2.6e-7,"MEAN_MOTION_DDOT":0},{"OBJECT_NAME":"STARLINK-1376","OBJECT_ID":"2020-025AR","EPOCH":"2025-08-20T07:48:43.599168","MEAN_MOTION":15.06405185,"ECCENTRICITY":0.0001302,"INCLINATION":53.054,"RA_OF_ASC_NODE":270.5777,"ARG_OF_PERICENTER":84.5139,"MEAN_ANOMALY":275.5998,"EPHEMERIS_TYPE":0,"CLASSIFICATION_TYPE":"U","NORAD_CAT_ID":45570,"ELEMENT_SET_NO":999,"REV_AT_EPOCH":29442,"BSTAR":0.00021676,"MEAN_MOTION_DOT":2.949e-5,"MEAN_MOTION_DDOT":0}]
